[
  {
    "COMMENT": "GENERATED VIA SPACETRACK.ORG API",
    "ORIGINATOR": "18 SPCS",
    "NORAD_CAT_ID": "43682",
    "OBJECT_NAME": "H-2A R/B",
    "OBJECT_TYPE": "ROCKET BODY",
    "CLASSIFICATION_TYPE": "U",
    "INTLDES": "18084L",
    "EPOCH": "2023-08-24 17:29:08",
    "EPOCH_MICROSECONDS": "926656",
    "MEAN_MOTION": "15.09374933",
    "ECCENTRICITY": "0.0048735",
    "INCLINATION": "98.8909",
    "RA_OF_ASC_NODE": "271.676",
    "ARG_OF_PERICENTER": "277.2498",
    "MEAN_ANOMALY": "82.3188",
    "EPHEMERIS_TYPE": "0",
    "ELEMENT_SET_NO": "999",
    "REV_AT_EPOCH": "26455",
    "BSTAR": "0.000307",
    "MEAN_MOTION_DOT": "0.00004954",
    "MEAN_MOTION_DDOT": "0",
    "FILE": "3988199",
    "TLE_LINE0": "0 H-2A R/B",
    "TLE_LINE1": "1 43682U 18084L   23236.72857554  .00004954  00000-0  30700-3 0  9998",
    "TLE_LINE2": "2 43682  98.8909 271.6760 0048735 277.2498  82.3188 15.09374933264559",
    "OBJECT_ID": "2018-084L",
    "OBJECT_NUMBER": "43682",
    "SEMIMAJOR_AXIS": "6916.246",
    "PERIOD": "95.404",
    "APOGEE": "571.817",
    "PERIGEE": "504.404",
    "DECAYED": "0"
  },
  {
    "COMMENT": "GENERATED VIA SPACETRACK.ORG API",
    "ORIGINATOR": "18 SPCS",
    "NORAD_CAT_ID": "43682",
    "OBJECT_NAME": "H-2A R/B",
    "OBJECT_TYPE": "ROCKET BODY",
    "CLASSIFICATION_TYPE": "U",
    "INTLDES": "18084L",
    "EPOCH": "2023-08-25 14:10:08",
    "EPOCH_MICROSECONDS": "892480",
    "MEAN_MOTION": "15.09383099",
    "ECCENTRICITY": "0.0048744",
    "INCLINATION": "98.8911",
    "RA_OF_ASC_NODE": "272.6742",
    "ARG_OF_PERICENTER": "274.3397",
    "MEAN_ANOMALY": "85.2259",
    "EPHEMERIS_TYPE": "0",
    "ELEMENT_SET_NO": "999",
    "REV_AT_EPOCH": "26468",
    "BSTAR": "0.00031096",
    "MEAN_MOTION_DOT": "0.0000502",
    "MEAN_MOTION_DDOT": "0",
    "FILE": "3988765",
    "TLE_LINE0": "0 H-2A R/B",
    "TLE_LINE1": "1 43682U 18084L   23237.59038070  .00005020  00000-0  31096-3 0  9992",
    "TLE_LINE2": "2 43682  98.8911 272.6742 0048744 274.3397  85.2259 15.09383099264687",
    "OBJECT_ID": "2018-084L",
    "OBJECT_NUMBER": "43682",
    "SEMIMAJOR_AXIS": "6916.221",
    "PERIOD": "95.403",
    "APOGEE": "571.798",
    "PERIGEE": "504.373",
    "DECAYED": "0"
  },
  {
    "COMMENT": "GENERATED VIA SPACETRACK.ORG API",
    "ORIGINATOR": "18 SPCS",
    "NORAD_CAT_ID": "43682",
    "OBJECT_NAME": "H-2A R/B",
    "OBJECT_TYPE": "ROCKET BODY",
    "CLASSIFICATION_TYPE": "U",
    "INTLDES": "18084L",
    "EPOCH": "2023-08-25 17:21:04",
    "EPOCH_MICROSECONDS": "229568",
    "MEAN_MOTION": "15.09384711",
    "ECCENTRICITY": "0.0048747",
    "INCLINATION": "98.891",
    "RA_OF_ASC_NODE": "272.8278",
    "ARG_OF_PERICENTER": "273.8936",
    "MEAN_ANOMALY": "85.6717",
    "EPHEMERIS_TYPE": "0",
    "ELEMENT_SET_NO": "999",
    "REV_AT_EPOCH": "26470",
    "BSTAR": "0.00032105",
    "MEAN_MOTION_DOT": "0.00005186",
    "MEAN_MOTION_DDOT": "0",
    "FILE": "3989051",
    "TLE_LINE0": "0 H-2A R/B",
    "TLE_LINE1": "1 43682U 18084L   23237.72296562  .00005186  00000-0  32105-3 0  9994",
    "TLE_LINE2": "2 43682  98.8910 272.8278 0048747 273.8936  85.6717 15.09384711264706",
    "OBJECT_ID": "2018-084L",
    "OBJECT_NUMBER": "43682",
    "SEMIMAJOR_AXIS": "6916.216",
    "PERIOD": "95.403",
    "APOGEE": "571.795",
    "PERIGEE": "504.366",
    "DECAYED": "0"
  },
  {
    "COMMENT": "GENERATED VIA SPACETRACK.ORG API",
    "ORIGINATOR": "18 SPCS",
    "NORAD_CAT_ID": "43682",
    "OBJECT_NAME": "H-2A R/B",
    "OBJECT_TYPE": "ROCKET BODY",
    "CLASSIFICATION_TYPE": "U",
    "INTLDES": "18084L",
    "EPOCH": "2023-08-26 01:18:22",
    "EPOCH_MICROSECONDS": "529088",
    "MEAN_MOTION": "15.09388489",
    "ECCENTRICITY": "0.0048753",
    "INCLINATION": "98.891",
    "RA_OF_ASC_NODE": "273.2117",
    "ARG_OF_PERICENTER": "272.7827",
    "MEAN_ANOMALY": "86.7818",
    "EPHEMERIS_TYPE": "0",
    "ELEMENT_SET_NO": "999",
    "REV_AT_EPOCH": "26475",
    "BSTAR": "0.00033092",
    "MEAN_MOTION_DOT": "0.00005349",
    "MEAN_MOTION_DDOT": "0",
    "FILE": "3989208",
    "TLE_LINE0": "0 H-2A R/B",
    "TLE_LINE1": "1 43682U 18084L   23238.05442742  .00005349  00000-0  33092-3 0  9991",
    "TLE_LINE2": "2 43682  98.8910 273.2117 0048753 272.7827  86.7818 15.09388489264752",
    "OBJECT_ID": "2018-084L",
    "OBJECT_NUMBER": "43682",
    "SEMIMAJOR_AXIS": "6916.204",
    "PERIOD": "95.403",
    "APOGEE": "571.788",
    "PERIGEE": "504.351",
    "DECAYED": "0"
  },
  {
    "COMMENT": "GENERATED VIA SPACETRACK.ORG API",
    "ORIGINATOR": "18 SPCS",
    "NORAD_CAT_ID": "43682",
    "OBJECT_NAME": "H-2A R/B",
    "OBJECT_TYPE": "ROCKET BODY",
    "CLASSIFICATION_TYPE": "U",
    "INTLDES": "18084L",
    "EPOCH": "2023-08-26 04:29:17",
    "EPOCH_MICROSECONDS": "837664",
    "MEAN_MOTION": "15.09389831",
    "ECCENTRICITY": "0.004875",
    "INCLINATION": "98.8911",
    "RA_OF_ASC_NODE": "273.3653",
    "ARG_OF_PERICENTER": "272.3274",
    "MEAN_ANOMALY": "87.2369",
    "EPHEMERIS_TYPE": "0",
    "ELEMENT_SET_NO": "999",
    "REV_AT_EPOCH": "26477",
    "BSTAR": "0.00033145",
    "MEAN_MOTION_DOT": "0.00005358",
    "MEAN_MOTION_DDOT": "0",
    "FILE": "3989608",
    "TLE_LINE0": "0 H-2A R/B",
    "TLE_LINE1": "1 43682U 18084L   23238.18701201  .00005358  00000-0  33145-3 0  9992",
    "TLE_LINE2": "2 43682  98.8911 273.3653 0048750 272.3274  87.2369 15.09389831264779",
    "OBJECT_ID": "2018-084L",
    "OBJECT_NUMBER": "43682",
    "SEMIMAJOR_AXIS": "6916.200",
    "PERIOD": "95.403",
    "APOGEE": "571.782",
    "PERIGEE": "504.349",
    "DECAYED": "0"
  },
  {
    "COMMENT": "GENERATED VIA SPACETRACK.ORG API",
    "ORIGINATOR": "18 SPCS",
    "NORAD_CAT_ID": "43682",
    "OBJECT_NAME": "H-2A R/B",
    "OBJECT_TYPE": "ROCKET BODY",
    "CLASSIFICATION_TYPE": "U",
    "INTLDES": "18084L",
    "EPOCH": "2023-08-26 17:12:58",
    "EPOCH_MICROSECONDS": "945824",
    "MEAN_MOTION": "15.09395839",
    "ECCENTRICITY": "0.004873",
    "INCLINATION": "98.8911",
    "RA_OF_ASC_NODE": "273.9796",
    "ARG_OF_PERICENTER": "270.5325",
    "MEAN_ANOMALY": "89.0316",
    "EPHEMERIS_TYPE": "0",
    "ELEMENT_SET_NO": "999",
    "REV_AT_EPOCH": "26485",
    "BSTAR": "0.00034313",
    "MEAN_MOTION_DOT": "0.00005551",
    "MEAN_MOTION_DDOT": "0",
    "FILE": "3989878",
    "TLE_LINE0": "0 H-2A R/B",
    "TLE_LINE1": "1 43682U 18084L   23238.71734891  .00005551  00000-0  34313-3 0  9995",
    "TLE_LINE2": "2 43682  98.8911 273.9796 0048730 270.5325  89.0316 15.09395839264854",
    "OBJECT_ID": "2018-084L",
    "OBJECT_NUMBER": "43682",
    "SEMIMAJOR_AXIS": "6916.182",
    "PERIOD": "95.402",
    "APOGEE": "571.749",
    "PERIGEE": "504.344",
    "DECAYED": "0"
  },
  {
    "COMMENT": "GENERATED VIA SPACETRACK.ORG API",
    "ORIGINATOR": "18 SPCS",
    "NORAD_CAT_ID": "43682",
    "OBJECT_NAME": "H-2A R/B",
    "OBJECT_TYPE": "ROCKET BODY",
    "CLASSIFICATION_TYPE": "U",
    "INTLDES": "18084L",
    "EPOCH": "2023-08-27 04:21:12",
    "EPOCH_MICROSECONDS": "270528",
    "MEAN_MOTION": "15.09401326",
    "ECCENTRICITY": "0.004872",
    "INCLINATION": "98.8912",
    "RA_OF_ASC_NODE": "274.517",
    "ARG_OF_PERICENTER": "268.9434",
    "MEAN_ANOMALY": "90.6208",
    "EPHEMERIS_TYPE": "0",
    "ELEMENT_SET_NO": "999",
    "REV_AT_EPOCH": "26492",
    "BSTAR": "0.00035268",
    "MEAN_MOTION_DOT": "0.00005709",
    "MEAN_MOTION_DDOT": "0",
    "FILE": "3990210",
    "TLE_LINE0": "0 H-2A R/B",
    "TLE_LINE1": "1 43682U 18084L   23239.18139202  .00005709  00000-0  35268-3 0  9997",
    "TLE_LINE2": "2 43682  98.8912 274.5170 0048720 268.9434  90.6208 15.09401326264924",
    "OBJECT_ID": "2018-084L",
    "OBJECT_NUMBER": "43682",
    "SEMIMAJOR_AXIS": "6916.165",
    "PERIOD": "95.402",
    "APOGEE": "571.726",
    "PERIGEE": "504.335",
    "DECAYED": "0"
  },
  {
    "COMMENT": "GENERATED VIA SPACETRACK.ORG API",
    "ORIGINATOR": "18 SPCS",
    "NORAD_CAT_ID": "43682",
    "OBJECT_NAME": "H-2A R/B",
    "OBJECT_TYPE": "ROCKET BODY",
    "CLASSIFICATION_TYPE": "U",
    "INTLDES": "18084L",
    "EPOCH": "2023-08-27 04:21:12",
    "EPOCH_MICROSECONDS": "270528",
    "MEAN_MOTION": "15.09401326",
    "ECCENTRICITY": "0.004872",
    "INCLINATION": "98.8912",
    "RA_OF_ASC_NODE": "274.517",
    "ARG_OF_PERICENTER": "268.9434",
    "MEAN_ANOMALY": "90.6208",
    "EPHEMERIS_TYPE": "0",
    "ELEMENT_SET_NO": "999",
    "REV_AT_EPOCH": "26492",
    "BSTAR": "0.00035268",
    "MEAN_MOTION_DOT": "0.00005709",
    "MEAN_MOTION_DDOT": "0",
    "FILE": "3990390",
    "TLE_LINE0": "0 H-2A R/B",
    "TLE_LINE1": "1 43682U 18084L   23239.18139202  .00005709  00000-0  35268-3 0  9997",
    "TLE_LINE2": "2 43682  98.8912 274.5170 0048720 268.9434  90.6208 15.09401326264924",
    "OBJECT_ID": "2018-084L",
    "OBJECT_NUMBER": "43682",
    "SEMIMAJOR_AXIS": "6916.165",
    "PERIOD": "95.402",
    "APOGEE": "571.726",
    "PERIGEE": "504.335",
    "DECAYED": "0"
  },
  {
    "COMMENT": "GENERATED VIA SPACETRACK.ORG API",
    "ORIGINATOR": "18 SPCS",
    "NORAD_CAT_ID": "43682",
    "OBJECT_NAME": "H-2A R/B",
    "OBJECT_TYPE": "ROCKET BODY",
    "CLASSIFICATION_TYPE": "U",
    "INTLDES": "18084L",
    "EPOCH": "2023-08-27 17:04:53",
    "EPOCH_MICROSECONDS": "45184",
    "MEAN_MOTION": "15.09407208",
    "ECCENTRICITY": "0.0048709",
    "INCLINATION": "98.8913",
    "RA_OF_ASC_NODE": "275.1314",
    "ARG_OF_PERICENTER": "267.1437",
    "MEAN_ANOMALY": "92.4213",
    "EPHEMERIS_TYPE": "0",
    "ELEMENT_SET_NO": "999",
    "REV_AT_EPOCH": "26500",
    "BSTAR": "0.00035012",
    "MEAN_MOTION_DOT": "0.00005668",
    "MEAN_MOTION_DDOT": "0",
    "FILE": "3990698",
    "TLE_LINE0": "0 H-2A R/B",
    "TLE_LINE1": "1 43682U 18084L   23239.71172506  .00005668  00000-0  35012-3 0  9991",
    "TLE_LINE2": "2 43682  98.8913 275.1314 0048709 267.1437  92.4213 15.09407208265004",
    "OBJECT_ID": "2018-084L",
    "OBJECT_NUMBER": "43682",
    "SEMIMAJOR_AXIS": "6916.147",
    "PERIOD": "95.402",
    "APOGEE": "571.700",
    "PERIGEE": "504.324",
    "DECAYED": "0"
  }
]